ONEWEB-0235             
1 48771U 21045E   25297.73087572  .00000091  00000+0  20754-3 0  9993
2 48771  87.8964 306.1731 0002019 106.1440 253.9913 13.15549925213428
ONEWEB-0242             
1 48772U 21045F   25297.72454441  .00000185  00000+0  45774-3 0  9999
2 48772  87.8973 306.1641 0001748  97.4255 262.7074 13.15548513213465
ONEWEB-0241             
1 48773U 21045G   25297.48369928  .00000148  00000+0  35827-3 0  9995
2 48773  87.8958 306.2547 0002216 100.1531 259.9849 13.15548599213344
ONEWEB-0243             
1 48774U 21045H   25297.43930959  .00001136  00000+0  29828-2 0  9990
2 48774  87.8969 306.2701 0001836 105.0217 255.1116 13.15558813213368
ONEWEB-0222             
1 48775U 21045J   25297.72691308  .00000166  00000+0  40802-3 0  9993
2 48775  87.8969 306.1644 0001928  96.9954 263.1396 13.15550472213443
ONEWEB-0244             
1 48776U 21045K   25297.44882784 -.00000071  00000+0 -22268-3 0  9996
2 48776  87.8974 306.2050 0001858  97.5126 262.6215 13.15548238213971
ONEWEB-0247             
1 48777U 21045L   25297.44565796 -.00000078  00000+0 -24190-3 0  9991
2 48777  87.8961 306.2695 0002039 121.8856 238.2473 13.15548988213412
ONEWEB-0245             
1 48778U 21045M   25297.51695895 -.00000074  00000+0 -23118-3 0  9999
2 48778  87.8963 306.2192 0002063  93.8753 266.2613 13.15549774213396
